{
    "links": {
        "self": "http://www.neowsapp.com/rest/v1/neo/3655744?api_key=iIulBulltgU6a56xZRHN4H3l9WmuAYTsLGpBGhQ2"
    },
    "id": "3655744",
    "neo_reference_id": "3655744",
    "name": "(2014 AB16)",
    "designation": "2014 AB16",
    "nasa_jpl_url": "http://ssd.jpl.nasa.gov/sbdb.cgi?sstr=3655744",
    "absolute_magnitude_h": 25.5,
    "estimated_diameter": {
        "kilometers": {
            "estimated_diameter_min": 0.0211132445,
            "estimated_diameter_max": 0.0472106499
        },
        "meters": {
            "estimated_diameter_min": 21.113244479,
            "estimated_diameter_max": 47.2106498806
        },
        "miles": {
            "estimated_diameter_min": 0.0131191578,
            "estimated_diameter_max": 0.0293353287
        },
        "feet": {
            "estimated_diameter_min": 69.2691770164,
            "estimated_diameter_max": 154.8905885541
        }
    },
    "is_potentially_hazardous_asteroid": false,
    "close_approach_data": [
        {
            "close_approach_date": "2013-12-27",
            "close_approach_date_full": "2013-Dec-27 11:15",
            "epoch_date_close_approach": 1388142900000,
            "relative_velocity": {
                "kilometers_per_second": "11.6788002102",
                "kilometers_per_hour": "42043.680756796",
                "miles_per_hour": "26124.3081902436"
            },
            "miss_distance": {
                "astronomical": "0.0303979544",
                "lunar": "11.8248042616",
                "kilometers": "4547469.230597128",
                "miles": "2825666.3520032464"
            },
            "orbiting_body": "Earth"
        },
        {
            "close_approach_date": "2040-05-05",
            "close_approach_date_full": "2040-May-05 19:16",
            "epoch_date_close_approach": 2219858160000,
            "relative_velocity": {
                "kilometers_per_second": "11.2377116151",
                "kilometers_per_hour": "40455.7618144162",
                "miles_per_hour": "25137.6371118521"
            },
            "miss_distance": {
                "astronomical": "0.0713230024",
                "lunar": "27.7446479336",
                "kilometers": "10669769.241044888",
                "miles": "6629887.1744319344"
            },
            "orbiting_body": "Mars"
        },
        {
            "close_approach_date": "2101-05-10",
            "close_approach_date_full": "2101-May-10 20:33",
            "epoch_date_close_approach": 4145200380000,
            "relative_velocity": {
                "kilometers_per_second": "11.6846313223",
                "kilometers_per_hour": "42064.6727604168",
                "miles_per_hour": "26137.3518049379"
            },
            "miss_distance": {
                "astronomical": "0.030426764",
                "lunar": "11.836011196",
                "kilometers": "4551779.08539268",
                "miles": "2828344.371591784"
            },
            "orbiting_body": "Mars"
        }
    ],
    "orbital_data": {
        "orbit_id": "6",
        "orbit_determination_date": "2017-04-06 08:43:01",
        "first_observation_date": "2014-01-02",
        "last_observation_date": "2014-01-11",
        "data_arc_in_days": 9,
        "observations_used": 26,
        "orbit_uncertainty": "8",
        "minimum_orbit_intersection": ".0113497",
        "jupiter_tisserand_invariant": "3.931",
        "epoch_osculation": "2456665.5",
        "eccentricity": ".5054913408404992",
        "semi_major_axis": "1.779565723623796",
        "inclination": "3.333934494747021",
        "ascending_node_longitude": "103.5062341141314",
        "orbital_period": "867.1005768166469",
        "perihelion_distance": ".8800106598754103",
        "perihelion_argument": "301.6036821543501",
        "aphelion_distance": "2.679120787372182",
        "perihelion_time": "2456617.565841056748",
        "mean_anomaly": "19.90114835688739",
        "mean_motion": ".4151767506852022",
        "equinox": "J2000",
        "orbit_class": {
            "orbit_class_type": "APO",
            "orbit_class_description": "Near-Earth asteroid orbits which cross the Earth’s orbit similar to that of 1862 Apollo",
            "orbit_class_range": "a (semi-major axis) > 1.0 AU; q (perihelion) < 1.017 AU"
        }
    },
    "is_sentry_object": false
}